1998-067XK              
1 65731U 98067XK  26028.85520522  .00243884  00000+0  12947-2 0  9992
2 65731  51.6245 256.1312 0003928 172.2218 187.8845 15.79246575 20556
RSP-03                  
1 65732U 98067XL  26028.88793537  .00486198  00000+0  15246-2 0  9996
2 65732  51.6201 253.2985 0005397 194.6285 165.4566 15.89659065 20608
YOTSUBA-KULOVER         
1 65941U 98067XN  26028.88873711  .00132779  00000+0  11518-2 0  9992
2 65941  51.6262 261.6316 0004440 181.9038 178.1942 15.68173608 17236
BOTAN                   
1 65942U 98067XP  26028.90640339  .00290204  00000+0  16092-2 0  9994
2 65942  51.6209 258.7225 0005472 195.0902 164.9936 15.78139785 17275
E-KAGAKU-1              
1 65943U 98067XQ  26028.88897326  .00132052  00000+0  11487-2 0  9991
2 65943  51.6278 261.6423 0003262 190.6835 169.4092 15.68112897 17239
HRC MONOBLOCK CAMERA    
1 66052U 98067XR  26029.37055093  .00059859  00000+0  77853-3 0  9998
2 66052  51.6292 263.3558 0000357  47.7385 312.3637 15.58190897 16259
HTV-X1                  
1 66174U 25241A   26028.88605451  .00011021  00000+0  21300-3 0  9996
2 66174  51.6319 269.1180 0011179  40.2849 319.8966 15.48254051   517
SZ-21 MODULE            
1 66515U 25246C   26029.43265624  .00042311  00000+0  40964-3 0  9999
2 66515  41.4753  84.4715 0003430 253.2584 106.7881 15.65602134 11913
SHENZHOU-22             
1 66645U 25272A   26028.57199371  .00027953  00000+0  32262-3 0  9998
2 66645  41.4673  91.9689 0009404  23.4558 336.6709 15.61237451267644
SOYUZ-MS 28             
1 66664U 25275A   26029.14423895  .00012119  00000+0  23330-3 0  9991
2 66664  51.6318 267.8418 0011079  40.9721 319.2097 15.48261724550204
DUPLEX                  
1 66906U 98067XS  26029.37947135  .00040824  00000+0  63583-3 0  9990
2 66906  51.6308 265.6641 0001692  72.8660 287.2515 15.53466331  9016
1998-067XT              
1 66907U 98067XT  26028.89896984  .00117480  00000+0  14487-2 0  9993
2 66907  51.6286 266.9551 0002316 146.9394 213.1744 15.59300283  8950
1998-067XU              
1 66908U 98067XU  26029.34718532  .00133488  00000+0  16355-2 0  9999
2 66908  51.6274 264.6964 0002822 144.4069 215.7112 15.59403637  9028
